DMSP 5D-3 F16 (USA 172) 
1 28054U 03048A   26057.88502754  .00000139  00000+0  96457-4 0  9990
2 28054  99.0003  80.9303 0008212  99.4818 318.3568 14.14457191153894
METEOSAT-9 (MSG-2)      
1 28912U 05049B   26057.60360245  .00000113  00000+0  00000+0 0  9999
2 28912   9.1112  55.2372 0002144 214.9771 149.1741  1.00274047  5898
DMSP 5D-3 F17 (USA 191) 
1 29522U 06050A   26057.92965451  .00000170  00000+0  11031-3 0  9998
2 29522  98.7412  66.7438 0010372  17.3956 342.7571 14.14958096996821
FENGYUN 3A              
1 32958U 08026A   26057.45765297  .00000092  00000+0  64050-4 0  9997
2 32958  98.6782   0.4252 0009852  87.0920 273.1383 14.19542251919697
GOES 14                 
1 35491U 09033A   26057.77780327  .00000119  00000+0  00000+0 0  9997
2 35491   1.4036  84.5008 0001990 288.0992 268.8652  1.00121209  5480
DMSP 5D-3 F18 (USA 210) 
1 35951U 09057A   26057.89232207  .00000278  00000+0  16705-3 0  9995
2 35951  98.8944  38.9592 0010557 199.5190 160.5581 14.14827836843998
EWS-G2 (GOES 15)        
1 36411U 10008A   26057.67848280  .00000008  00000+0  00000+0 0  9993
2 36411   0.9944  85.2674 0001392  31.5513 347.4868  1.00268388 58535
COMS 1                  
1 36744U 10032A   26057.54856885 -.00000357  00000+0  00000+0 0  9993
2 36744   4.5206  76.9575 0001099 255.1684 149.8963  1.00273302 49980
FENGYUN 3B              
1 37214U 10059A   26057.99272289  .00000085  00000+0  67340-4 0  9996
2 37214  98.9794 103.4653 0022801 137.3387 339.9482 14.14813820791841
SUOMI NPP               
1 37849U 11061A   26057.88856514  .00000083  00000+0  60488-4 0  9995
2 37849  98.7855 359.5779 0000612 324.1477  35.9657 14.19540006742791
METEOSAT-10 (MSG-3)     
1 38552U 12035B   26057.66591609 -.00000017  00000+0  00000+0 0  9993
2 38552   4.4095  61.4838 0002415 285.9148  49.0115  1.00275762 49740
METOP-B                 
1 38771U 12049A   26057.88639589  .00000104  00000+0  67635-4 0  9993
2 38771  98.6667 111.5107 0001380 323.1249  36.9834 14.21440503697595
INSAT-3D                
1 39216U 13038B   26057.90546459 -.00000353  00000+0  00000+0 0  9998
2 39216   1.6407  83.9902 0002260 229.9600 298.2321  1.00270744 45977
FENGYUN 3C              
1 39260U 13052A   26057.93325000  .00000114  00000+0  78926-4 0  9994
2 39260  98.4873  36.9363 0014402 345.3619  14.7137 14.15724654642962
METEOR-M 2              
1 40069U 14037A   26057.91342756  .00000289  00000+0  15161-3 0  9996
2 40069  98.5009  37.6229 0006001   8.7442 351.3839 14.21424044603651
HIMAWARI-8              
1 40267U 14060A   26057.76506321 -.00000288  00000+0  00000+0 0  9997
2 40267   0.0084 129.1390 0001073 163.5261 280.0109  1.00271042 41656
FENGYUN 2G              
1 40367U 14090A   26057.98028957 -.00000316  00000+0  00000+0 0  9991
2 40367   5.3586  74.1522 0002138 154.0859  21.0732  1.00276446 40892
METEOSAT-11 (MSG-4)     
1 40732U 15034A   26057.88171781  .00000049  00000+0  00000+0 0  9991
2 40732   2.9237  71.7168 0001818 269.4120 142.5222  1.00264345  6114
ELEKTRO-L 2             
1 41105U 15074A   26057.87695112 -.00000131  00000+0  00000+0 0  9991
2 41105   6.4155  71.8794 0003514 232.6047 153.4316  1.00270707 37408
INSAT-3DR               
1 41752U 16054A   26057.75180315 -.00000089  00000+0  00000+0 0  9991
2 41752   0.0309 100.3215 0013614 180.3860 220.4922  1.00271752 34717
HIMAWARI-9              
1 41836U 16064A   26057.76506321 -.00000287  00000+0  00000+0 0  9995
2 41836   0.0297 223.3353 0001120 124.7067 224.7220  1.00276193 34100
GOES 16                 
1 41866U 16071A   26057.67440806 -.00000103  00000+0  00000+0 0  9998
2 41866   0.1406  90.8182 0002796 210.3222 353.4501  1.00271417 33990
FENGYUN 4A              
1 41882U 16077A   26057.90433792 -.00000371  00000+0  00000+0 0  9991
2 41882   2.0403  81.4920 0006412 133.8950  30.5112  1.00264168 33826
CYGFM05                 
1 41884U 16078A   26057.89294471  .00024506  00000+0  40027-3 0  9993
2 41884  34.9571 268.2663 0006331 189.6364 170.4238 15.51554715511583
CYGFM04                 
1 41885U 16078B   26057.90144519  .00075216  00000+0  10863-2 0  9991
2 41885  34.9314 240.6627 0005849 225.0696 134.9553 15.54730562511785
CYGFM02                 
1 41886U 16078C   26057.88141446  .00034071  00000+0  46228-3 0  9994
2 41886  34.9402 237.9147 0006875 222.5510 137.4682 15.56569178511929
CYGFM01                 
1 41887U 16078D   26057.92315287  .00024174  00000+0  38903-3 0  9990
2 41887  34.9402 269.9135 0006013 180.6928 179.3787 15.51971209511538
CYGFM08                 
1 41888U 16078E   26057.91350118  .00026389  00000+0  40235-3 0  9993
2 41888  34.9429 251.9854 0007772 207.1423 152.8894 15.53435333511771
CYGFM07                 
1 41890U 16078G   26057.88483294  .00028299  00000+0  42096-3 0  9993
2 41890  34.9444 240.6915 0006443 228.5355 131.4815 15.54112569511791
CYGFM03                 
1 41891U 16078H   26057.85575547  .00027610  00000+0  41278-3 0  9991
2 41891  34.9398 242.8613 0005474 212.2368 147.8021 15.53984705511761
FENGYUN 3D              
1 43010U 17072A   26057.92378605 -.00000170  00000+0 -58771-4 0  9996
2 43010  99.0009  30.4235 0002057  34.5367 325.5942 14.19710170429349
NOAA 20 (JPSS-1)        
1 43013U 17073A   26057.90317872  .00000056  00000+0  47650-4 0  9992
2 43013  98.7678 358.3985 0000701 151.4732 208.6482 14.19532798428823
GOES 17                 
1 43226U 18022A   26057.64072256 -.00000195  00000+0  00000+0 0  9996
2 43226   0.6524  87.6749 0002520 214.1182 355.8525  1.00270435 29315
FENGYUN 2H              
1 43491U 18050A   26057.89549787 -.00000140  00000+0  00000+0 0  9996
2 43491   2.7449  80.4233 0002119 172.9740 304.7489  1.00272618 28330
METOP-C                 
1 43689U 18087A   26057.91117447  .00000099  00000+0  65248-4 0  9994
2 43689  98.6790 119.4658 0002110 115.0359 245.1038 14.21492835379161
GEO-KOMPSAT-2A          
1 43823U 18100A   26057.76263653 -.00000357  00000+0  00000+0 0  9992
2 43823   0.0133  71.1823 0001144 324.2029 164.0110  1.00271430 26529
METEOR-M2 2             
1 44387U 19038A   26057.95689433 -.00000093  00000+0 -20215-4 0  9991
2 44387  98.9073  43.6620 0001448  22.7818 337.3424 14.24328010345609
ARKTIKA-M 1             
1 47719U 21016A   26053.84774794 -.00000141  00000+0  00000+0 0  9999
2 47719  63.1993  73.9988 7239159 269.4113  15.2414  2.00621828 36495
FENGYUN 3E              
1 49008U 21062A   26057.99099704  .00000167  00000+0  99576-4 0  9992
2 49008  98.7516  62.6252 0002556  61.6473 298.4961 14.19892374240943
GOES 18                 
1 51850U 22021A   26057.78136569  .00000084  00000+0  00000+0 0  9991
2 51850   0.0154  71.7407 0000539 299.5896 289.5597  1.00271939  5486
NOAA 21 (JPSS-2)        
1 54234U 22150A   26057.86752070  .00000083  00000+0  60150-4 0  9999
2 54234  98.7540 358.2583 0002348 126.0867 234.0527 14.19548826170890
METEOSAT-12 (MTG-I1)    
1 54743U 22170C   26057.80840582 -.00000020  00000+0  00000+0 0  9991
2 54743   0.7379  28.2824 0002076 275.3364 143.7205  1.00273408 11876
TIANMU-1 03             
1 55973U 23039A   26057.92640538  .00018278  00000+0  40614-3 0  9996
2 55973  97.5162 227.8854 0003891 132.4156 227.7421 15.43733623163800
TIANMU-1 04             
1 55974U 23039B   26057.88789124  .00018886  00000+0  41392-3 0  9996
2 55974  97.5094 227.0091 0004567 129.2329 230.9325 15.44131751163801
TIANMU-1 05             
1 55975U 23039C   26057.90257855  .00018166  00000+0  40449-3 0  9994
2 55975  97.5141 227.5163 0003542 150.0528 210.0923 15.43673708163787
TIANMU-1 06             
1 55976U 23039D   26057.88790536  .00019052  00000+0  41713-3 0  9990
2 55976  97.5153 228.0315 0003877 146.0016 214.1481 15.44163265163804
FENGYUN 3G              
1 56232U 23055A   26057.96102686  .00033755  00000+0  51892-3 0  9991
2 56232  49.9922 194.3950 0010607 325.5993  34.4287 15.53816074162878
METEOR-M2 3             
1 57166U 23091A   26057.92686617 -.00000012  00000+0  13632-4 0  9997
2 57166  98.6239 115.0895 0004928 123.7509 236.4140 14.24036286138821
TIANMU-1 07             
1 57399U 23101A   26057.65658066  .00007270  00000+0  25852-3 0  9992
2 57399  97.2756 110.8500 0004837 153.2831 206.8660 15.29271180144756
TIANMU-1 08             
1 57400U 23101B   26057.62660262 -.00000227  00000+0 -54826-5 0  9995
2 57400  97.2742 110.6000 0006172 156.8679 203.2841 15.29140719144744
TIANMU-1 09             
1 57401U 23101C   26057.67332883  .00000582  00000+0  23046-4 0  9997
2 57401  97.2697 110.1278 0005297 158.8074 201.3387 15.29285857144752
TIANMU-1 10             
1 57402U 23101D   26056.59550455  .00006547  00000+0  23206-3 0  9999
2 57402  97.2782 110.0039 0007314 162.4910 197.6584 15.29399552144589
FENGYUN 3F              
1 57490U 23111A   26057.90663679  .00000045  00000+0  41670-4 0  9999
2 57490  98.6951 129.9260 0001401  85.6128 274.5208 14.19916469133218
ARKTIKA-M 2             
1 58584U 23198A   26054.10731457  .00000190  00000+0  00000+0 0  9996
2 58584  63.2206 166.9971 6875515 267.8148  18.8510  2.00613706 16031
TIANMU-1 11             
1 58645U 23205A   26057.98511352  .00006644  00000+0  26309-3 0  9996
2 58645  97.3563  81.3108 0010210  43.2809 316.9230 15.25709702120717
TIANMU-1 12             
1 58646U 23205B   26057.88582367  .00006958  00000+0  27621-3 0  9996
2 58646  97.3551  80.9949 0008067  30.8100 329.3610 15.25628180120682
TIANMU-1 13             
1 58647U 23205C   26057.98265828  .00006748  00000+0  26758-3 0  9995
2 58647  97.3579  81.3243 0007713  13.0603 347.0834 15.25679074120697
TIANMU-1 14             
1 58648U 23205D   26057.90147947  .00006570  00000+0  26072-3 0  9991
2 58648  97.3512  80.5231 0008658  16.1157 344.0356 15.25654828120685
TIANMU-1 19             
1 58660U 23208A   26057.93650679  .00011003  00000+0  38635-3 0  9997
2 58660  97.4376 173.9153 0004682   0.8825 359.2423 15.29566280120460
TIANMU-1 20             
1 58661U 23208B   26057.92917108  .00011035  00000+0  37341-3 0  9998
2 58661  97.4315 174.4308 0007023   6.4293 353.7037 15.30757025120545
TIANMU-1 21             
1 58662U 23208C   26057.94164431  .00012897  00000+0  41007-3 0  9995
2 58662  97.4368 176.6773 0006741   0.0907   0.0335 15.32725342120667
TIANMU-1 22             
1 58663U 23208D   26057.88608551  .00009997  00000+0  35529-3 0  9994
2 58663  97.4370 173.8827 0004002  30.8436 329.3038 15.29200912120468
TIANMU-1 15             
1 58700U 24004A   26057.96481068  .00006621  00000+0  26290-3 0  9998
2 58700  97.4666 244.2188 0007531  26.7586 333.4039 15.25647733118962
TIANMU-1 16             
1 58701U 24004B   26057.94852703  .00007074  00000+0  28049-3 0  9992
2 58701  97.4606 243.5334 0006053  31.9193 328.2411 15.25679881118967
TIANMU-1 17             
1 58702U 24004C   26057.93111361  .00007426  00000+0  29403-3 0  9996
2 58702  97.4639 243.9646 0005280  34.7801 325.3782 15.25716616118958
TIANMU-1 18             
1 58703U 24004D   26057.91592823  .00007204  00000+0  28573-3 0  9992
2 58703  97.4656 244.1591 0004672  35.9566 324.1986 15.25669709118958
INSAT-3DS               
1 58990U 24033A   26057.89610455 -.00000169  00000+0  00000+0 0  9996
2 58990   0.0685 266.6202 0002260  82.0837 212.7002  1.00270548 45969
METEOR-M2 4             
1 59051U 24039A   26057.95704672  .00000033  00000+0  34561-4 0  9996
2 59051  98.6885  18.7174 0007921 123.5099 236.6837 14.22415170103592
GOES 19                 
1 60133U 24119A   26057.83282387 -.00000261  00000+0  00000+0 0  9999
2 60133   0.0141  10.7362 0000972 353.7062  16.8328  1.00270756  5858
FENGYUN 3H              
1 65815U 25219A   26057.90297702  .00000075  00000+0  55874-4 0  9994
2 65815  98.6670   0.8747 0001483  68.9762 291.1573 14.19929266 21733
